{
  "type": "FeatureCollection",
  "features": [
    {
      "type": "Feature",
      "properties": {
        "norad_id": 31422,
        "name": "FENGYUN 1C DEB",
        "group": "fengyun-1c-debris",
        "lat": 57.35675286012733,
        "lon": 178.55688962057064,
        "alt_km": 879.7226058773449,
        "timestamp": "2025-12-13T16:48:32.992584+00:00",
        "meta_object_name": "FENGYUN 1C DEB",
        "meta_object_id": "1999-025BTJ",
        "meta_epoch": "2025-12-08T05:20:26.078784",
        "meta_mean_motion": 14.09612791,
        "meta_eccentricity": 0.00340685,
        "meta_inclination": 98.7601,
        "meta_ra_of_asc_node": 339.2993,
        "meta_arg_of_pericenter": 313.8133,
        "meta_mean_anomaly": 105.1085,
        "meta_ephemeris_type": 0,
        "meta_classification_type": "U",
        "meta_norad_cat_id": 31422,
        "meta_element_set_no": 999,
        "meta_rev_at_epoch": 95598,
        "meta_bstar": 0.00069545976,
        "meta_mean_motion_dot": 1.181e-05,
        "meta_mean_motion_ddot": 0,
        "tle_line1": "1 31422U 99025BTJ 25342.22252406  .00001181  00000+0  69546-3 0  9999",
        "tle_line2": "2 31422  98.7601 339.2993 0034068 313.8133 105.1085 14.09612791955982"
      },
      "geometry": {
        "type": "Point",
        "coordinates": [
          178.55688962057064,
          57.35675286012733
        ]
      }
    },
    {
      "type": "Feature",
      "properties": {
        "norad_id": 31423,
        "name": "FENGYUN 1C DEB",
        "group": "fengyun-1c-debris",
        "lat": -73.86725504977407,
        "lon": -0.027220980491352537,
        "alt_km": 823.6297866063032,
        "timestamp": "2025-12-13T16:48:32.992594+00:00",
        "meta_object_name": "FENGYUN 1C DEB",
        "meta_object_id": "1999-025BTK",
        "meta_epoch": "2025-12-11T09:28:43.643712",
        "meta_mean_motion": 14.22970433,
        "meta_eccentricity": 0.00360491,
        "meta_inclination": 98.5833,
        "meta_ra_of_asc_node": 326.2493,
        "meta_arg_of_pericenter": 197.9689,
        "meta_mean_anomaly": 162.0217,
        "meta_ephemeris_type": 0,
        "meta_classification_type": "U",
        "meta_norad_cat_id": 31423,
        "meta_element_set_no": 999,
        "meta_rev_at_epoch": 96949,
        "meta_bstar": 0.00023912069,
        "meta_mean_motion_dot": 4.99e-06,
        "meta_mean_motion_ddot": 0,
        "tle_line1": "1 31423U 99025BTK 25345.39494958  .00000499  00000+0  23912-3 0  9999",
        "tle_line2": "2 31423  98.5833 326.2493 0036049 197.9689 162.0217 14.22970433969492"
      },
      "geometry": {
        "type": "Point",
        "coordinates": [
          -0.027220980491352537,
          -73.86725504977407
        ]
      }
    },
    {
      "type": "Feature",
      "properties": {
        "norad_id": 31424,
        "name": "FENGYUN 1C DEB",
        "group": "fengyun-1c-debris",
        "lat": -9.631503644584004,
        "lon": 33.088863308098155,
        "alt_km": 894.3682075677143,
        "timestamp": "2025-12-13T16:48:32.992610+00:00",
        "meta_object_name": "FENGYUN 1C DEB",
        "meta_object_id": "1999-025BTL",
        "meta_epoch": "2025-12-10T20:39:09.320256",
        "meta_mean_motion": 14.08356451,
        "meta_eccentricity": 0.0094496,
        "meta_inclination": 98.4819,
        "meta_ra_of_asc_node": 28.9671,
        "meta_arg_of_pericenter": 110.6479,
        "meta_mean_anomaly": 250.4855,
        "meta_ephemeris_type": 0,
        "meta_classification_type": "U",
        "meta_norad_cat_id": 31424,
        "meta_element_set_no": 999,
        "meta_rev_at_epoch": 63144,
        "meta_bstar": 0.00030603,
        "meta_mean_motion_dot": 5.06e-06,
        "meta_mean_motion_ddot": 0,
        "tle_line1": "1 31424U 99025BTL 25344.86052454  .00000506  00000+0  30603-3 0  9996",
        "tle_line2": "2 31424  98.4819  28.9671 0094496 110.6479 250.4855 14.08356451631442"
      },
      "geometry": {
        "type": "Point",
        "coordinates": [
          33.088863308098155,
          -9.631503644584004
        ]
      }
    },
    {
      "type": "Feature",
      "properties": {
        "norad_id": 31426,
        "name": "FENGYUN 1C DEB",
        "group": "fengyun-1c-debris",
        "lat": 68.12501482030525,
        "lon": -12.67545933097581,
        "alt_km": 846.226666266858,
        "timestamp": "2025-12-13T16:48:32.992620+00:00",
        "meta_object_name": "FENGYUN 1C DEB",
        "meta_object_id": "1999-025BTN",
        "meta_epoch": "2025-12-12T22:00:22.574880",
        "meta_mean_motion": 13.90071914,
        "meta_eccentricity": 0.03246746,
        "meta_inclination": 98.5783,
        "meta_ra_of_asc_node": 144.5171,
        "meta_arg_of_pericenter": 185.5476,
        "meta_mean_anomaly": 329.6862,
        "meta_ephemeris_type": 0,
        "meta_classification_type": "U",
        "meta_norad_cat_id": 31426,
        "meta_element_set_no": 999,
        "meta_rev_at_epoch": 93575,
        "meta_bstar": 0.0040099966,
        "meta_mean_motion_dot": 7.543e-05,
        "meta_mean_motion_ddot": 0,
        "tle_line1": "1 31426U 99025BTN 25346.91692795  .00007543  00000+0  40100-2 0  9994",
        "tle_line2": "2 31426  98.5783 144.5171 0324674 185.5476 329.6862 13.90071914935753"
      },
      "geometry": {
        "type": "Point",
        "coordinates": [
          -12.67545933097581,
          68.12501482030525
        ]
      }
    },
    {
      "type": "Feature",
      "properties": {
        "norad_id": 31427,
        "name": "FENGYUN 1C DEB",
        "group": "fengyun-1c-debris",
        "lat": -72.25895698133205,
        "lon": 125.27999110869727,
        "alt_km": 704.7423893604737,
        "timestamp": "2025-12-13T16:48:32.992630+00:00",
        "meta_object_name": "FENGYUN 1C DEB",
        "meta_object_id": "1999-025BTP",
        "meta_epoch": "2025-12-12T06:34:37.699680",
        "meta_mean_motion": 14.58660809,
        "meta_eccentricity": 0.00313345,
        "meta_inclination": 98.669,
        "meta_ra_of_asc_node": 95.3107,
        "meta_arg_of_pericenter": 20.4562,
        "meta_mean_anomaly": 339.7883,
        "meta_ephemeris_type": 0,
        "meta_classification_type": "U",
        "meta_norad_cat_id": 31427,
        "meta_element_set_no": 999,
        "meta_rev_at_epoch": 96874,
        "meta_bstar": 0.0037138675,
        "meta_mean_motion_dot": 0.00017416,
        "meta_mean_motion_ddot": 0,
        "tle_line1": "1 31427U 99025BTP 25346.27404745  .00017416  00000+0  37139-2 0  9998",
        "tle_line2": "2 31427  98.6690  95.3107 0031334  20.4562 339.7883 14.58660809968747"
      },
      "geometry": {
        "type": "Point",
        "coordinates": [
          125.27999110869727,
          -72.25895698133205
        ]
      }
    },
    {
      "type": "Feature",
      "properties": {
        "norad_id": 31428,
        "name": "FENGYUN 1C DEB",
        "group": "fengyun-1c-debris",
        "lat": -33.85836309517645,
        "lon": -34.66161476212517,
        "alt_km": 803.2459702244587,
        "timestamp": "2025-12-13T16:48:32.992640+00:00",
        "meta_object_name": "FENGYUN 1C DEB",
        "meta_object_id": "1999-025BTQ",
        "meta_epoch": "2025-12-11T05:04:26.079744",
        "meta_mean_motion": 14.42001157,
        "meta_eccentricity": 0.00637524,
        "meta_inclination": 99.0396,
        "meta_ra_of_asc_node": 316.5728,
        "meta_arg_of_pericenter": 158.2823,
        "meta_mean_anomaly": 213.9369,
        "meta_ephemeris_type": 0,
        "meta_classification_type": "U",
        "meta_norad_cat_id": 31428,
        "meta_element_set_no": 999,
        "meta_rev_at_epoch": 97488,
        "meta_bstar": 0.0011588504,
        "meta_mean_motion_dot": 3.847e-05,
        "meta_mean_motion_ddot": 0,
        "tle_line1": "1 31428U 99025BTQ 25345.21141296  .00003847  00000+0  11589-2 0  9995",
        "tle_line2": "2 31428  99.0396 316.5728 0063752 158.2823 213.9369 14.42001157974884"
      },
      "geometry": {
        "type": "Point",
        "coordinates": [
          -34.66161476212517,
          -33.85836309517645
        ]
      }
    },
    {
      "type": "Feature",
      "properties": {
        "norad_id": 31429,
        "name": "FENGYUN 1C DEB",
        "group": "fengyun-1c-debris",
        "lat": -50.98830930957528,
        "lon": 47.50541043538358,
        "alt_km": 827.6159804610825,
        "timestamp": "2025-12-13T16:48:32.992650+00:00",
        "meta_object_name": "FENGYUN 1C DEB",
        "meta_object_id": "1999-025BTR",
        "meta_epoch": "2025-12-12T21:38:31.535232",
        "meta_mean_motion": 14.2257066,
        "meta_eccentricity": 0.00146193,
        "meta_inclination": 98.6902,
        "meta_ra_of_asc_node": 35.8357,
        "meta_arg_of_pericenter": 63.4298,
        "meta_mean_anomaly": 117.3115,
        "meta_ephemeris_type": 0,
        "meta_classification_type": "U",
        "meta_norad_cat_id": 31429,
        "meta_element_set_no": 999,
        "meta_rev_at_epoch": 95955,
        "meta_bstar": 0.0015676194,
        "meta_mean_motion_dot": 3.463e-05,
        "meta_mean_motion_ddot": 0,
        "tle_line1": "1 31429U 99025BTR 25346.90175388  .00003463  00000+0  15676-2 0  9997",
        "tle_line2": "2 31429  98.6902  35.8357 0014619  63.4298 117.3115 14.22570660959554"
      },
      "geometry": {
        "type": "Point",
        "coordinates": [
          47.50541043538358,
          -50.98830930957528
        ]
      }
    }
  ]
}